{
  "type": "FeatureCollection",
  "features": [
    {
      "type": "Feature",
      "properties": {
        "norad_id": 32225,
        "name": "FENGYUN 1C DEB",
        "group": "fengyun-1c-debris",
        "lat": 71.83649439532927,
        "lon": -115.80374244444187,
        "alt_km": 852.378166848921,
        "timestamp": "2025-12-12T07:43:20.800109+00:00",
        "meta_object_name": "FENGYUN 1C DEB",
        "meta_object_id": "1999-025CVX",
        "meta_epoch": "2025-12-10T21:13:47.563392",
        "meta_mean_motion": 14.13042634,
        "meta_eccentricity": 0.0071641,
        "meta_inclination": 99.0927,
        "meta_ra_of_asc_node": 33.5192,
        "meta_arg_of_pericenter": 211.7536,
        "meta_mean_anomaly": 147.9305,
        "meta_ephemeris_type": 0,
        "meta_classification_type": "U",
        "meta_norad_cat_id": 32225,
        "meta_element_set_no": 999,
        "meta_rev_at_epoch": 68090,
        "meta_bstar": 0.00031798,
        "meta_mean_motion_dot": 5.62e-06,
        "meta_mean_motion_ddot": 0,
        "tle_line1": "1 32225U 99025CVX 25344.88457828  .00000562  00000+0  31798-3 0  9990",
        "tle_line2": "2 32225  99.0927  33.5192 0071641 211.7536 147.9305 14.13042634680909"
      },
      "geometry": {
        "type": "Point",
        "coordinates": [
          -115.80374244444187,
          71.83649439532927
        ]
      }
    },
    {
      "type": "Feature",
      "properties": {
        "norad_id": 32230,
        "name": "FENGYUN 1C DEB",
        "group": "fengyun-1c-debris",
        "lat": -55.00384422936031,
        "lon": -56.98130814407321,
        "alt_km": 742.2185189821739,
        "timestamp": "2025-12-12T07:43:20.800121+00:00",
        "meta_object_name": "FENGYUN 1C DEB",
        "meta_object_id": "1999-025CWC",
        "meta_epoch": "2025-12-11T09:27:40.133664",
        "meta_mean_motion": 14.5606844,
        "meta_eccentricity": 0.00506958,
        "meta_inclination": 98.8712,
        "meta_ra_of_asc_node": 134.9234,
        "meta_arg_of_pericenter": 93.4093,
        "meta_mean_anomaly": 322.8366,
        "meta_ephemeris_type": 0,
        "meta_classification_type": "U",
        "meta_norad_cat_id": 32230,
        "meta_element_set_no": 999,
        "meta_rev_at_epoch": 60650,
        "meta_bstar": 0.005963693,
        "meta_mean_motion_dot": 0.00026787,
        "meta_mean_motion_ddot": 0,
        "tle_line1": "1 32230U 99025CWC 25345.39421451  .00026787  00000+0  59637-2 0  9994",
        "tle_line2": "2 32230  98.8712 134.9234 0050695  93.4093 322.8366 14.56068440606501"
      },
      "geometry": {
        "type": "Point",
        "coordinates": [
          -56.98130814407321,
          -55.00384422936031
        ]
      }
    },
    {
      "type": "Feature",
      "properties": {
        "norad_id": 32234,
        "name": "FENGYUN 1C DEB",
        "group": "fengyun-1c-debris",
        "lat": 77.43013087848074,
        "lon": 58.50133285823839,
        "alt_km": 959.4051458251533,
        "timestamp": "2025-12-12T07:43:20.800132+00:00",
        "meta_object_name": "FENGYUN 1C DEB",
        "meta_object_id": "1999-025CWG",
        "meta_epoch": "2025-12-02T12:59:39.185664",
        "meta_mean_motion": 13.9406659,
        "meta_eccentricity": 0.0137699,
        "meta_inclination": 98.5292,
        "meta_ra_of_asc_node": 187.1676,
        "meta_arg_of_pericenter": 4.214,
        "meta_mean_anomaly": 356.0148,
        "meta_ephemeris_type": 0,
        "meta_classification_type": "U",
        "meta_norad_cat_id": 32234,
        "meta_element_set_no": 999,
        "meta_rev_at_epoch": 93067,
        "meta_bstar": 0.0016148587,
        "meta_mean_motion_dot": 2.273e-05,
        "meta_mean_motion_ddot": 0,
        "tle_line1": "1 32234U 99025CWG 25336.54142576  .00002273  00000+0  16149-2 0  9998",
        "tle_line2": "2 32234  98.5292 187.1676 0137699   4.2140 356.0148 13.94066590930678"
      },
      "geometry": {
        "type": "Point",
        "coordinates": [
          58.50133285823839,
          77.43013087848074
        ]
      }
    },
    {
      "type": "Feature",
      "properties": {
        "norad_id": 32241,
        "name": "FENGYUN 1C DEB",
        "group": "fengyun-1c-debris",
        "lat": 76.37879254838991,
        "lon": -25.527011389493975,
        "alt_km": 874.023357391763,
        "timestamp": "2025-12-12T07:43:20.800142+00:00",
        "meta_object_name": "FENGYUN 1C DEB",
        "meta_object_id": "1999-025CWP",
        "meta_epoch": "2025-12-10T20:02:37.728096",
        "meta_mean_motion": 14.28717235,
        "meta_eccentricity": 0.0146317,
        "meta_inclination": 99.078,
        "meta_ra_of_asc_node": 14.2114,
        "meta_arg_of_pericenter": 228.9704,
        "meta_mean_anomaly": 129.8752,
        "meta_ephemeris_type": 0,
        "meta_classification_type": "U",
        "meta_norad_cat_id": 32241,
        "meta_element_set_no": 999,
        "meta_rev_at_epoch": 93796,
        "meta_bstar": 0.0022286,
        "meta_mean_motion_dot": 6.245e-05,
        "meta_mean_motion_ddot": 0,
        "tle_line1": "1 32241U 99025CWP 25344.83515889  .00006245  00000+0  22286-2 0  9990",
        "tle_line2": "2 32241  99.0780  14.2114 0146317 228.9704 129.8752 14.28717235937962"
      },
      "geometry": {
        "type": "Point",
        "coordinates": [
          -25.527011389493975,
          76.37879254838991
        ]
      }
    },
    {
      "type": "Feature",
      "properties": {
        "norad_id": 32243,
        "name": "FENGYUN 1C DEB",
        "group": "fengyun-1c-debris",
        "lat": 58.5190521990935,
        "lon": -2.7547433217211825,
        "alt_km": 785.7251972799659,
        "timestamp": "2025-12-12T07:43:20.800152+00:00",
        "meta_object_name": "FENGYUN 1C DEB",
        "meta_object_id": "1999-025CWR",
        "meta_epoch": "2025-12-12T00:36:01.478304",
        "meta_mean_motion": 14.04590698,
        "meta_eccentricity": 0.02695219,
        "meta_inclination": 98.2687,
        "meta_ra_of_asc_node": 10.7122,
        "meta_arg_of_pericenter": 125.5548,
        "meta_mean_anomaly": 237.1071,
        "meta_ephemeris_type": 0,
        "meta_classification_type": "U",
        "meta_norad_cat_id": 32243,
        "meta_element_set_no": 999,
        "meta_rev_at_epoch": 93578,
        "meta_bstar": 0.0027569941,
        "meta_mean_motion_dot": 6.063e-05,
        "meta_mean_motion_ddot": 0,
        "tle_line1": "1 32243U 99025CWR 25346.02501711  .00006063  00000+0  27570-2 0  9993",
        "tle_line2": "2 32243  98.2687  10.7122 0269521 125.5548 237.1071 14.04590698935783"
      },
      "geometry": {
        "type": "Point",
        "coordinates": [
          -2.7547433217211825,
          58.5190521990935
        ]
      }
    },
    {
      "type": "Feature",
      "properties": {
        "norad_id": 32245,
        "name": "FENGYUN 1C DEB",
        "group": "fengyun-1c-debris",
        "lat": -41.056099974513025,
        "lon": -5.283149156507714,
        "alt_km": 681.0707369110396,
        "timestamp": "2025-12-12T07:43:20.800163+00:00",
        "meta_object_name": "FENGYUN 1C DEB",
        "meta_object_id": "1999-025CWT",
        "meta_epoch": "2025-12-08T06:47:00.083040",
        "meta_mean_motion": 14.76843452,
        "meta_eccentricity": 0.00978135,
        "meta_inclination": 98.6545,
        "meta_ra_of_asc_node": 178.0112,
        "meta_arg_of_pericenter": 355.9473,
        "meta_mean_anomaly": 4.0932,
        "meta_ephemeris_type": 0,
        "meta_classification_type": "U",
        "meta_norad_cat_id": 32245,
        "meta_element_set_no": 999,
        "meta_rev_at_epoch": 66040,
        "meta_bstar": 0.0014541087,
        "meta_mean_motion_dot": 0.00011,
        "meta_mean_motion_ddot": 0,
        "tle_line1": "1 32245U 99025CWT 25342.28263985  .00011000  00000+0  14541-2 0  9998",
        "tle_line2": "2 32245  98.6545 178.0112 0097813 355.9473   4.0932 14.76843452660407"
      },
      "geometry": {
        "type": "Point",
        "coordinates": [
          -5.283149156507714,
          -41.056099974513025
        ]
      }
    },
    {
      "type": "Feature",
      "properties": {
        "norad_id": 32304,
        "name": "FENGYUN 1C DEB",
        "group": "fengyun-1c-debris",
        "lat": -78.00941652134054,
        "lon": 69.61674060305472,
        "alt_km": 701.9988510200692,
        "timestamp": "2025-12-12T07:43:20.800172+00:00",
        "meta_object_name": "FENGYUN 1C DEB",
        "meta_object_id": "1999-025CWV",
        "meta_epoch": "2025-12-03T02:19:20.087328",
        "meta_mean_motion": 14.50391603,
        "meta_eccentricity": 0.00495576,
        "meta_inclination": 99.3949,
        "meta_ra_of_asc_node": 290.5539,
        "meta_arg_of_pericenter": 255.7789,
        "meta_mean_anomaly": 103.7894,
        "meta_ephemeris_type": 0,
        "meta_classification_type": "U",
        "meta_norad_cat_id": 32304,
        "meta_element_set_no": 999,
        "meta_rev_at_epoch": 56133,
        "meta_bstar": 0.0019806873,
        "meta_mean_motion_dot": 7.809e-05,
        "meta_mean_motion_ddot": 0,
        "tle_line1": "1 32304U 99025CWV 25337.09676027  .00007809  00000+0  19807-2 0  9994",
        "tle_line2": "2 32304  99.3949 290.5539 0049557 255.7789 103.7894 14.50391603561335"
      },
      "geometry": {
        "type": "Point",
        "coordinates": [
          69.61674060305472,
          -78.00941652134054
        ]
      }
    }
  ]
}